{
    "links": {
        "self": "http://www.neowsapp.com/rest/v1/neo/3989217?api_key=iIulBulltgU6a56xZRHN4H3l9WmuAYTsLGpBGhQ2"
    },
    "id": "3989217",
    "neo_reference_id": "3989217",
    "name": "(2020 BR9)",
    "designation": "2020 BR9",
    "nasa_jpl_url": "http://ssd.jpl.nasa.gov/sbdb.cgi?sstr=3989217",
    "absolute_magnitude_h": 26.204,
    "estimated_diameter": {
        "kilometers": {
            "estimated_diameter_min": 0.0152670447,
            "estimated_diameter_max": 0.0341381497
        },
        "meters": {
            "estimated_diameter_min": 15.2670446807,
            "estimated_diameter_max": 34.1381497216
        },
        "miles": {
            "estimated_diameter_min": 0.0094864988,
            "estimated_diameter_max": 0.0212124562
        },
        "feet": {
            "estimated_diameter_min": 50.0887308703,
            "estimated_diameter_max": 112.0018071328
        }
    },
    "is_potentially_hazardous_asteroid": false,
    "close_approach_data": [
        {
            "close_approach_date": "2020-01-15",
            "close_approach_date_full": "2020-Jan-15 08:07",
            "epoch_date_close_approach": 1579075620000,
            "relative_velocity": {
                "kilometers_per_second": "5.3641585486",
                "kilometers_per_hour": "19310.9707750756",
                "miles_per_hour": "11999.0862574352"
            },
            "miss_distance": {
                "astronomical": "0.0876340342",
                "lunar": "34.0896393038",
                "kilometers": "13109864.855827154",
                "miles": "8146092.2820925652"
            },
            "orbiting_body": "Earth"
        }
    ],
    "orbital_data": {
        "orbit_id": "1",
        "orbit_determination_date": "2020-01-26 21:12:03",
        "first_observation_date": "2020-01-25",
        "last_observation_date": "2020-01-26",
        "data_arc_in_days": 1,
        "observations_used": 14,
        "orbit_uncertainty": "8",
        "minimum_orbit_intersection": ".0874596",
        "jupiter_tisserand_invariant": "3.656",
        "epoch_osculation": "2458874.5",
        "eccentricity": ".4739676717854502",
        "semi_major_axis": "2.033415934487663",
        "inclination": "4.66382397021818",
        "ascending_node_longitude": "124.4109077131232",
        "orbital_period": "1059.101932856989",
        "perihelion_distance": "1.06964251824711",
        "perihelion_argument": "347.7597925046318",
        "aphelion_distance": "2.997189350728217",
        "perihelion_time": "2458861.648323066638",
        "mean_anomaly": "4.368421539492226",
        "mean_motion": ".3399106250603084",
        "equinox": "J2000",
        "orbit_class": {
            "orbit_class_type": "AMO",
            "orbit_class_description": "Near-Earth asteroid orbits similar to that of 1221 Amor",
            "orbit_class_range": "1.017 AU < q (perihelion) < 1.3 AU"
        }
    },
    "is_sentry_object": false
}